CCSDS_OMM_VERS = 2.0
CREATION_DATE  = 
ORIGINATOR     = 

OBJECT_NAME    = STARLINK-35509
OBJECT_ID      = 2025-243Y
CENTER_NAME    = EARTH
REF_FRAME      = TEME
TIME_SYSTEM    = UTC
MEAN_ELEMENT_THEORY = SGP/SGP4

EPOCH          = 2025-11-20T20:00:03.000384
MEAN_MOTION    = 15.49282614
ECCENTRICITY   = .0001228
INCLINATION    = 53.1601
RA_OF_ASC_NODE = 31.5047
ARG_OF_PERICENTER = 75.3761
MEAN_ANOMALY   = 101.2062

EPHEMERIS_TYPE = 0
CLASSIFICATION_TYPE = U
NORAD_CAT_ID   = 66199
ELEMENT_SET_NO = 999
REV_AT_EPOCH   = 506
BSTAR          = .2612E-3
MEAN_MOTION_DOT = .14092E-3
MEAN_MOTION_DDOT = 0

CCSDS_OMM_VERS = 2.0
CREATION_DATE  = 
ORIGINATOR     = 

OBJECT_NAME    = STARLINK-35551
OBJECT_ID      = 2025-243Z
CENTER_NAME    = EARTH
REF_FRAME      = TEME
TIME_SYSTEM    = UTC
MEAN_ELEMENT_THEORY = SGP/SGP4

EPOCH          = 2025-11-20T20:00:03.000384
MEAN_MOTION    = 15.49280381
ECCENTRICITY   = .0000979
INCLINATION    = 53.1602
RA_OF_ASC_NODE = 31.5123
ARG_OF_PERICENTER = 57.2296
MEAN_ANOMALY   = 115.5247

EPHEMERIS_TYPE = 0
CLASSIFICATION_TYPE = U
NORAD_CAT_ID   = 66200
ELEMENT_SET_NO = 999
REV_AT_EPOCH   = 506
BSTAR          = .25574E-3
MEAN_MOTION_DOT = .13786E-3
MEAN_MOTION_DDOT = 0

CCSDS_OMM_VERS = 2.0
CREATION_DATE  = 
ORIGINATOR     = 

OBJECT_NAME    = STARLINK-35543
OBJECT_ID      = 2025-243AA
CENTER_NAME    = EARTH
REF_FRAME      = TEME
TIME_SYSTEM    = UTC
MEAN_ELEMENT_THEORY = SGP/SGP4

EPOCH          = 2025-11-20T20:00:03.000384
MEAN_MOTION    = 15.49282979
ECCENTRICITY   = .0001084
INCLINATION    = 53.1602
RA_OF_ASC_NODE = 31.5159
ARG_OF_PERICENTER = 60.1365
MEAN_ANOMALY   = 110.6961

EPHEMERIS_TYPE = 0
CLASSIFICATION_TYPE = U
NORAD_CAT_ID   = 66201
ELEMENT_SET_NO = 999
REV_AT_EPOCH   = 512
BSTAR          = .24393E-3
MEAN_MOTION_DOT = .13129E-3
MEAN_MOTION_DDOT = 0

CCSDS_OMM_VERS = 2.0
CREATION_DATE  = 
ORIGINATOR     = 

OBJECT_NAME    = STARLINK-35534
OBJECT_ID      = 2025-243AB
CENTER_NAME    = EARTH
REF_FRAME      = TEME
TIME_SYSTEM    = UTC
MEAN_ELEMENT_THEORY = SGP/SGP4

EPOCH          = 2025-11-20T20:00:03.000384
MEAN_MOTION    = 15.49282688
ECCENTRICITY   = .0001135
INCLINATION    = 53.1601
RA_OF_ASC_NODE = 31.5203
ARG_OF_PERICENTER = 58.7066
MEAN_ANOMALY   = 110.2095

EPHEMERIS_TYPE = 0
CLASSIFICATION_TYPE = U
NORAD_CAT_ID   = 66202
ELEMENT_SET_NO = 999
REV_AT_EPOCH   = 506
BSTAR          = .25012E-3
MEAN_MOTION_DOT = .13473E-3
MEAN_MOTION_DDOT = 0

CCSDS_OMM_VERS = 2.0
CREATION_DATE  = 
ORIGINATOR     = 

OBJECT_NAME    = STARLINK-35548
OBJECT_ID      = 2025-243AC
CENTER_NAME    = EARTH
REF_FRAME      = TEME
TIME_SYSTEM    = UTC
MEAN_ELEMENT_THEORY = SGP/SGP4

EPOCH          = 2025-11-20T20:00:03.000384
MEAN_MOTION    = 15.49277883
ECCENTRICITY   = .0001053
INCLINATION    = 53.1601
RA_OF_ASC_NODE = 31.5248
ARG_OF_PERICENTER = 56.7897
MEAN_ANOMALY   = 110.2178

EPHEMERIS_TYPE = 0
CLASSIFICATION_TYPE = U
NORAD_CAT_ID   = 66203
ELEMENT_SET_NO = 999
REV_AT_EPOCH   = 512
BSTAR          = .27459E-3
MEAN_MOTION_DOT = .14836E-3
MEAN_MOTION_DDOT = 0

CCSDS_OMM_VERS = 2.0
CREATION_DATE  = 
ORIGINATOR     = 

OBJECT_NAME    = STARLINK-35490
OBJECT_ID      = 2025-243AD
CENTER_NAME    = EARTH
REF_FRAME      = TEME
TIME_SYSTEM    = UTC
MEAN_ELEMENT_THEORY = SGP/SGP4

EPOCH          = 2025-11-20T20:00:03.000384
MEAN_MOTION    = 15.49279669
ECCENTRICITY   = .0001129
INCLINATION    = 53.1600
RA_OF_ASC_NODE = 31.5321
ARG_OF_PERICENTER = 58.9126
MEAN_ANOMALY   = 104.2569

EPHEMERIS_TYPE = 0
CLASSIFICATION_TYPE = U
NORAD_CAT_ID   = 66204
ELEMENT_SET_NO = 999
REV_AT_EPOCH   = 501
BSTAR          = .28906E-3
MEAN_MOTION_DOT = .15644E-3
MEAN_MOTION_DDOT = 0

CCSDS_OMM_VERS = 2.0
CREATION_DATE  = 
ORIGINATOR     = 

OBJECT_NAME    = STARLINK-35748
OBJECT_ID      = 2025-244A
CENTER_NAME    = EARTH
REF_FRAME      = TEME
TIME_SYSTEM    = UTC
MEAN_ELEMENT_THEORY = SGP/SGP4

EPOCH          = 2025-11-20T20:00:03.000384
MEAN_MOTION    = 15.39614885
ECCENTRICITY   = .0001269
INCLINATION    = 53.1596
RA_OF_ASC_NODE = 19.4002
ARG_OF_PERICENTER = 87.7487
MEAN_ANOMALY   = 96.5458

EPHEMERIS_TYPE = 0
CLASSIFICATION_TYPE = U
NORAD_CAT_ID   = 66206
ELEMENT_SET_NO = 999
REV_AT_EPOCH   = 473
BSTAR          = -.19704E-3
MEAN_MOTION_DOT = -.8271E-4
MEAN_MOTION_DDOT = 0

CCSDS_OMM_VERS = 2.0
CREATION_DATE  = 
ORIGINATOR     = 

OBJECT_NAME    = STARLINK-35747
OBJECT_ID      = 2025-244B
CENTER_NAME    = EARTH
REF_FRAME      = TEME
TIME_SYSTEM    = UTC
MEAN_ELEMENT_THEORY = SGP/SGP4

EPOCH          = 2025-11-20T14:40:16.245696
MEAN_MOTION    = 15.74228495
ECCENTRICITY   = .0001185
INCLINATION    = 53.1602
RA_OF_ASC_NODE = 19.0581
ARG_OF_PERICENTER = 88.6147
MEAN_ANOMALY   = 271.5009

EPHEMERIS_TYPE = 0
CLASSIFICATION_TYPE = U
NORAD_CAT_ID   = 66207
ELEMENT_SET_NO = 999
REV_AT_EPOCH   = 492
BSTAR          = .89836E-3
MEAN_MOTION_DOT = .133265E-2
MEAN_MOTION_DDOT = 0

CCSDS_OMM_VERS = 2.0
CREATION_DATE  = 
ORIGINATOR     = 

OBJECT_NAME    = STARLINK-35751
OBJECT_ID      = 2025-244C
CENTER_NAME    = EARTH
REF_FRAME      = TEME
TIME_SYSTEM    = UTC
MEAN_ELEMENT_THEORY = SGP/SGP4

EPOCH          = 2025-11-20T20:00:03.000384
MEAN_MOTION    = 15.39608057
ECCENTRICITY   = .0001795
INCLINATION    = 53.1596
RA_OF_ASC_NODE = 19.3961
ARG_OF_PERICENTER = 87.3665
MEAN_ANOMALY   = 98.7614

EPHEMERIS_TYPE = 0
CLASSIFICATION_TYPE = U
NORAD_CAT_ID   = 66208
ELEMENT_SET_NO = 999
REV_AT_EPOCH   = 484
BSTAR          = -.12144E-3
MEAN_MOTION_DOT = -.5252E-4
MEAN_MOTION_DDOT = 0

CCSDS_OMM_VERS = 2.0
CREATION_DATE  = 
ORIGINATOR     = 

OBJECT_NAME    = STARLINK-35750
OBJECT_ID      = 2025-244D
CENTER_NAME    = EARTH
REF_FRAME      = TEME
TIME_SYSTEM    = UTC
MEAN_ELEMENT_THEORY = SGP/SGP4

EPOCH          = 2025-11-20T20:00:03.000384
MEAN_MOTION    = 15.39605178
ECCENTRICITY   = .0001025
INCLINATION    = 53.1592
RA_OF_ASC_NODE = 19.3441
ARG_OF_PERICENTER = 46.8385
MEAN_ANOMALY   = 164.9588

EPHEMERIS_TYPE = 0
CLASSIFICATION_TYPE = U
NORAD_CAT_ID   = 66209
ELEMENT_SET_NO = 999
REV_AT_EPOCH   = 481
BSTAR          = .273E-3
MEAN_MOTION_DOT = .1053E-3
MEAN_MOTION_DDOT = 0

CCSDS_OMM_VERS = 2.0
CREATION_DATE  = 
ORIGINATOR     = 

OBJECT_NAME    = STARLINK-35740
OBJECT_ID      = 2025-244E
CENTER_NAME    = EARTH
REF_FRAME      = TEME
TIME_SYSTEM    = UTC
MEAN_ELEMENT_THEORY = SGP/SGP4

EPOCH          = 2025-11-20T20:00:03.000384
MEAN_MOTION    = 15.39600509
ECCENTRICITY   = .0001195
INCLINATION    = 53.1589
RA_OF_ASC_NODE = 19.3489
ARG_OF_PERICENTER = 50.7866
MEAN_ANOMALY   = 159.1714

EPHEMERIS_TYPE = 0
CLASSIFICATION_TYPE = U
NORAD_CAT_ID   = 66210
ELEMENT_SET_NO = 999
REV_AT_EPOCH   = 468
BSTAR          = .30394E-3
MEAN_MOTION_DOT = .11769E-3
MEAN_MOTION_DDOT = 0

CCSDS_OMM_VERS = 2.0
CREATION_DATE  = 
ORIGINATOR     = 

OBJECT_NAME    = STARLINK-35723
OBJECT_ID      = 2025-244F
CENTER_NAME    = EARTH
REF_FRAME      = TEME
TIME_SYSTEM    = UTC
MEAN_ELEMENT_THEORY = SGP/SGP4

EPOCH          = 2025-11-20T20:00:03.000384
MEAN_MOTION    = 15.40044553
ECCENTRICITY   = .0001516
INCLINATION    = 53.1595
RA_OF_ASC_NODE = 19.2964
ARG_OF_PERICENTER = 60.5172
MEAN_ANOMALY   = 175.0886

EPHEMERIS_TYPE = 0
CLASSIFICATION_TYPE = U
NORAD_CAT_ID   = 66211
ELEMENT_SET_NO = 999
REV_AT_EPOCH   = 473
BSTAR          = -.17835E-1
MEAN_MOTION_DOT = -.672233E-2
MEAN_MOTION_DDOT = 0

