STARLINK-35509          
1 66199U 25243Y   25324.83336806  .00014092  00000+0  26120-3 0  9999
2 66199  53.1601  31.5047 0001228  75.3761 101.2062 15.49282614  5066
STARLINK-35551          
1 66200U 25243Z   25324.83336806  .00013786  00000+0  25574-3 0  9993
2 66200  53.1602  31.5123 0000979  57.2296 115.5247 15.49280381  5061
STARLINK-35543          
1 66201U 25243AA  25324.83336806  .00013129  00000+0  24393-3 0  9993
2 66201  53.1602  31.5159 0001084  60.1365 110.6961 15.49282979  5120
STARLINK-35534          
1 66202U 25243AB  25324.83336806  .00013473  00000+0  25012-3 0  9995
2 66202  53.1601  31.5203 0001135  58.7066 110.2095 15.49282688  5062
STARLINK-35548          
1 66203U 25243AC  25324.83336806  .00014836  00000+0  27459-3 0  9997
2 66203  53.1601  31.5248 0001053  56.7897 110.2178 15.49277883  5121
STARLINK-35490          
1 66204U 25243AD  25324.83336806  .00015644  00000+0  28906-3 0  9994
2 66204  53.1600  31.5321 0001129  58.9126 104.2569 15.49279669  5015
STARLINK-35748          
1 66206U 25244A   25324.83336806 -.00008271  00000+0 -19704-3 0  9993
2 66206  53.1596  19.4002 0001269  87.7487  96.5458 15.39614885  4737
STARLINK-35747          
1 66207U 25244B   25324.61129914  .00133265  00000+0  89836-3 0  9993
2 66207  53.1602  19.0581 0001185  88.6147 271.5009 15.74228495  4929
STARLINK-35751          
1 66208U 25244C   25324.83336806 -.00005252  00000+0 -12144-3 0  9992
2 66208  53.1596  19.3961 0001795  87.3665  98.7614 15.39608057  4844
STARLINK-35750          
1 66209U 25244D   25324.83336806  .00010530  00000+0  27300-3 0  9996
2 66209  53.1592  19.3441 0001025  46.8385 164.9588 15.39605178  4813
STARLINK-35740          
1 66210U 25244E   25324.83336806  .00011769  00000+0  30394-3 0  9990
2 66210  53.1589  19.3489 0001195  50.7866 159.1714 15.39600509  4684
STARLINK-35723          
1 66211U 25244F   25324.83336806 -.00672233  00000+0 -17835-1 0  9995
2 66211  53.1595  19.2964 0001516  60.5172 175.0886 15.40044553  4731
